#aV2009  3 13  0  0   .00000000      96 DD+AD WGS84 FIT  NGA
## 1522 432000.00000000   900.00000000 54903  .0000000000000
+   31     2  3  4  5  6  7  8  9 10 11 12 13 14 15 16 17 18
+         19 20 21 22 23 24 25 26 27 28 29 30 31 32  0  0  0
+          0  0  0  0  0  0  0  0  0  0  0  0  0  0  0  0  0
+          0  0  0  0  0  0  0  0  0  0  0  0  0  0  0  0  0
+          0  0  0  0  0  0  0  0  0  0  0  0  0  0  0  0  0
++         0  0  0  0  0  0  0  0  0  0  0  0  0  0  0  0  0
++         0  0  0  0  0  0  0  0  0  0  0  0  0  0  0  0  0
++         0  0  0  0  0  0  0  0  0  0  0  0  0  0  0  0  0
++         0  0  0  0  0  0  0  0  0  0  0  0  0  0  0  0  0
++         0  0  0  0  0  0  0  0  0  0  0  0  0  0  0  0  0
%c cc cc ccc ccc cccc cccc cccc cccc ccccc ccccc ccccc ccccc
%c cc cc ccc ccc cccc cccc cccc cccc ccccc ccccc ccccc ccccc
%f  0.0000000  0.000000000  0.00000000000  0.000000000000000
%f  0.0000000  0.000000000  0.00000000000  0.000000000000000
%i    0    0    0    0      0      0      0      0         0
%i    0    0    0    0      0      0      0      0         0
/*      NGA, ST. LOUIS,MO.                                  
/*   EPHEMERIS COMPUTED FROM  3 DAYS OF DATA                
/* CCCCCCCCCCCCCCCCCCCCCCCCCCCCCCCCCCCCCCCCCCCCCCCCCCCCCCCCC
/* CCCCCCCCCCCCCCCCCCCCCCCCCCCCCCCCCCCCCCCCCCCCCCCCCCCCCCCCC
*  2009  3 13  8  0   .00000000                                                 
P  2 -15865.075329  -1765.943459 -21299.900350    155.011192                    
V  2   8662.396755 -25477.816326  -4761.157190      -.008116                    
P  3  21285.963595   5187.624988  14952.564370    364.871667                    
V  3  12054.015097  15519.873930 -21742.955967       .052797                    
P  4  -9700.014892 -14847.701854 -19793.725728    -10.652679                    
V  4  10486.151352 -22775.804313  12392.856218      -.143978                    
P  5 -16713.732499  15038.156415 -14340.202493     -7.352596                    
V  5 -17849.518684   2060.790452  23575.399274      -.061225                    
P  6  21291.963875   9790.669314  12727.618296     29.583179                    
V  6   8428.120739  13793.395553 -25046.613054       .191176                    
P  7   6188.142353 -25328.344135   4727.333113     21.763141                    
V  7   4658.582586  -4684.100877 -31191.327645      -.004410                    
P  8  -2783.532078 -20332.084473  16519.566265   -194.192034                    
V  8  10210.440423 -18673.902086 -21675.144045      -.014719                    
P  9 -14206.396847  19383.863319  10544.401161     45.134854                    
V  9   2476.397734 -14348.250816  28117.139292       .020720                    
P 10 -26579.124455   1720.285898  -2611.537010    -12.577383                    
V 10   2722.676829  -2944.221979 -31264.627169      -.006292                    
P 11  12054.663484 -20805.036075  10698.164812      4.809824                    
V 11   2332.586851  14718.694063  25872.968331      -.012169                    
P 12 -19775.621825  12041.311916 -12837.944928   -306.794801                    
V 12 -16607.547848    295.629778  25816.178606       .042395                    
P 13  -1557.315456 -20671.131747 -16735.830819    291.369956                    
V 13  13154.561105  16327.355901 -21538.659020       .011931                    
P 14  15650.133055  21525.592736    672.641175   -141.688889                    
V 14  -1882.724384    535.455807  32280.711521       .055521                    
P 15 -16479.256408   2963.323399  20655.771280   -268.239762                    
V 15 -16087.305505 -20659.327004  -9826.818363      -.048364                    
P 16  25166.164093   2419.117305  -8457.959050     67.989947                    
V 16 -10346.105647   3680.772108 -29285.375285      -.029543                    
P 17 -14785.452244 -22017.819430   2806.497382     50.005357                    
V 17   4232.237587   1093.927766  31353.954119       .013806                    
P 18    969.849257  15686.640490  21613.437304    -75.275372                    
V 18 -26844.402551   3124.508850  -1438.796663       .035042                    
P 19  15235.815728  -4449.830233  21389.604240     30.746978                    
V 19  15087.175613  22379.438137  -5874.281710      -.007651                    
P 20  17391.008259 -13922.750760 -14554.695586     88.316275                    
V 20  18478.690251   -838.024338  23130.682671      -.010687                    
P 21  -2723.169696  24565.023838   9069.213119     24.726549                    
V 21  -7770.727515   9186.020928 -28563.858094      -.018970                    
P 22  12764.642884  12846.490764  19602.071145    203.578039                    
V 22 -24266.286240   4333.279208  13002.334801      -.006180                    
P 23   7719.621055 -13742.725072 -21383.767518    388.268388                    
V 23  17463.656837  20674.135508  -7263.180455       .004925                    
P 24 -13297.363565  22754.824163  -4167.287492    172.653629                    
V 24   -426.183382  -6116.536289 -30778.989111       .031383                    
P 25   8674.477618 -25063.586443  -2415.924963    297.236869                    
V 25   1397.996699   3998.981578 -31607.904216       .232690                    
P 26 -17229.555814  -1781.714322  19782.868710     50.664377                    
V 26 -14797.556996 -21432.917510 -13918.051798       .024787                    
P 27 -14846.446044  -3637.288118  22417.460093     31.829943                    
V 27   8037.410074 -25540.817800   1153.574437       .031290                    
P 28 -10516.579530 -13264.786569  20968.065804    -23.653137                    
V 28  25277.148754  -3895.564541  10109.238882      -.000597                    
P 29    526.298895  20251.202481 -17091.913986     -1.777773                    
V 29 -14768.012222 -16258.409340 -19561.445911       .039548                    
P 30  -8007.473883  16101.590352 -19880.932263    132.066267                    
V 30 -24283.592255   3643.748590  13052.836530       .024892                    
P 31  10402.001382  12516.050133 -20748.334125    -54.545444                    
V 31 -10321.063470  24786.384542   9809.668915      -.012275                    
P 32  23866.444946  -7436.516829  -8199.560795    286.984542                    
V 32  11204.288740   1971.262151  29624.941594      -.039166                    
EOF
